{
  "type": "FeatureCollection",
  "generator": "overpass-ide",
  "copyright": "The data included in this document is from www.openstreetmap.org. The data is made available under ODbL.",
  "timestamp": "2019-12-13T09:32:01Z",
  "features": [
    {
      "type": "Feature",
      "properties": {
        "@id": "node/296443219",
        "addr:conscriptionnumber": "1711",
        "addr:housenumber": "1711/4",
        "addr:postcode": "12000",
        "addr:street": "Čerchovská",
        "addr:streetnumber": "4",
        "source:addr": "uir_adr",
        "uir_adr:ADRESA_KOD": "21755990"
      },
      "geometry": {
        "type": "Point",
        "coordinates": [
          0.0003823500000006419,
          -0.0005519500000019661
        ]
      },
      "id": "node/296443219",
      "clusterID": 24
    },
    {
      "type": "Feature",
      "properties": {
        "@id": "node/296449022",
        "addr:conscriptionnumber": "1536",
        "addr:housenumber": "1536/13",
        "addr:postcode": "12000",
        "addr:street": "Krkonošská",
        "addr:streetnumber": "13",
        "source:addr": "uir_adr",
        "uir_adr:ADRESA_KOD": "21754624"
      },
      "geometry": {
        "type": "Point",
        "coordinates": [
          0.00026585000000167724,
          0.0003906499999999369
        ]
      },
      "id": "node/296449022",
      "clusterID": 9
    },
    {
      "type": "Feature",
      "properties": {
        "@id": "node/296451990",
        "addr:conscriptionnumber": "1606",
        "addr:housenumber": "1606/21",
        "addr:postcode": "12000",
        "addr:street": "Slavíkova",
        "addr:streetnumber": "21",
        "source:addr": "uir_adr",
        "uir_adr:ADRESA_KOD": "21755230"
      },
      "geometry": {
        "type": "Point",
        "coordinates": [
          0.0004767500000006919,
          0.0007904499999966674
        ]
      },
      "id": "node/296451990",
      "clusterID": 7
    },
    {
      "type": "Feature",
      "properties": {
        "@id": "node/296458098",
        "addr:conscriptionnumber": "1510",
        "addr:housenumber": "1510/19",
        "addr:postcode": "12000",
        "addr:street": "Slavíkova",
        "addr:streetnumber": "19",
        "source:addr": "uir_adr",
        "uir_adr:ADRESA_KOD": "21754331"
      },
      "geometry": {
        "type": "Point",
        "coordinates": [
          0.0006064500000011463,
          0.0007111500000007709
        ]
      },
      "id": "node/296458098",
      "clusterID": 7
    },
    {
      "type": "Feature",
      "properties": {
        "@id": "node/296459981",
        "addr:conscriptionnumber": "1474",
        "addr:housenumber": "1474/1",
        "addr:postcode": "12000",
        "addr:street": "Krkonošská",
        "addr:streetnumber": "1",
        "source:addr": "uir_adr",
        "uir_adr:ADRESA_KOD": "21754039"
      },
      "geometry": {
        "type": "Point",
        "coordinates": [
          -0.0012044499999994684,
          0.0001427500000019677
        ]
      },
      "id": "node/296459981",
      "clusterID": 2
    },
    {
      "type": "Feature",
      "properties": {
        "@id": "node/296469484",
        "addr:conscriptionnumber": "1620",
        "addr:housenumber": "1620/13",
        "addr:postcode": "12000",
        "addr:street": "Slavíkova",
        "addr:streetnumber": "13",
        "source:addr": "uir_adr",
        "uir_adr:ADRESA_KOD": "21755370"
      },
      "geometry": {
        "type": "Point",
        "coordinates": [
          0.0013895500000007388,
          8.154999999732127e-05
        ]
      },
      "id": "node/296469484",
      "clusterID": 16
    },
    {
      "type": "Feature",
      "properties": {
        "@id": "node/296481721",
        "addr:conscriptionnumber": "1550",
        "addr:housenumber": "1550/4",
        "addr:postcode": "12000",
        "addr:street": "Na Švihance",
        "addr:streetnumber": "4",
        "source:addr": "uir_adr",
        "uir_adr:ADRESA_KOD": "21754764"
      },
      "geometry": {
        "type": "Point",
        "coordinates": [
          -0.001092649999998585,
          0.0007425499999982321
        ]
      },
      "id": "node/296481721",
      "clusterID": 0
    },
    {
      "type": "Feature",
      "properties": {
        "@id": "node/296482049",
        "addr:conscriptionnumber": "1534",
        "addr:housenumber": "1534/6",
        "addr:postcode": "12000",
        "addr:street": "Krkonošská",
        "addr:streetnumber": "6",
        "source:addr": "uir_adr",
        "uir_adr:ADRESA_KOD": "21754616"
      },
      "geometry": {
        "type": "Point",
        "coordinates": [
          -0.0006007499999984844,
          2.3649999995711823e-05
        ]
      },
      "id": "node/296482049",
      "clusterID": 5
    },
    {
      "type": "Feature",
      "properties": {
        "@id": "node/296482588",
        "addr:conscriptionnumber": "1557",
        "addr:housenumber": "1557/8",
        "addr:postcode": "12000",
        "addr:street": "Krkonošská",
        "addr:streetnumber": "8",
        "source:addr": "uir_adr",
        "uir_adr:ADRESA_KOD": "21754853"
      },
      "geometry": {
        "type": "Point",
        "coordinates": [
          -0.00032774999999851673,
          6.594999999975926e-05
        ]
      },
      "id": "node/296482588",
      "clusterID": 6
    },
    {
      "type": "Feature",
      "properties": {
        "@id": "node/296487854",
        "addr:conscriptionnumber": "1605",
        "addr:housenumber": "1605/10",
        "addr:postcode": "12000",
        "addr:street": "Na Švihance",
        "addr:streetnumber": "10",
        "source:addr": "uir_adr",
        "uir_adr:ADRESA_KOD": "21755221"
      },
      "geometry": {
        "type": "Point",
        "coordinates": [
          -0.00038234999999886554,
          0.0008506499999967332
        ]
      },
      "id": "node/296487854",
      "clusterID": 1
    },
    {
      "type": "Feature",
      "properties": {
        "@id": "node/296488829",
        "addr:conscriptionnumber": "1508",
        "addr:housenumber": "1508/9",
        "addr:postcode": "12000",
        "addr:street": "Krkonošská",
        "addr:streetnumber": "9",
        "source:addr": "uir_adr",
        "uir_adr:ADRESA_KOD": "21754314"
      },
      "geometry": {
        "type": "Point",
        "coordinates": [
          -0.00016954999999896359,
          0.00031584999999978436
        ]
      },
      "id": "node/296488829",
      "clusterID": 4
    },
    {
      "type": "Feature",
      "properties": {
        "@id": "node/296490378",
        "addr:conscriptionnumber": "1522",
        "addr:housenumber": "1522/4",
        "addr:postcode": "12000",
        "addr:street": "Krkonošská",
        "addr:streetnumber": "4",
        "source:addr": "uir_adr",
        "uir_adr:ADRESA_KOD": "21754462"
      },
      "geometry": {
        "type": "Point",
        "coordinates": [
          -0.0008323499999978168,
          -1.4950000000624186e-05
        ]
      },
      "id": "node/296490378",
      "clusterID": 17
    },
    {
      "type": "Feature",
      "properties": {
        "@id": "node/296494537",
        "addr:conscriptionnumber": "1564",
        "addr:housenumber": "1564/8",
        "addr:postcode": "12000",
        "addr:street": "Chopinova",
        "addr:streetnumber": "8",
        "source:addr": "uir_adr",
        "uir_adr:ADRESA_KOD": "21754926"
      },
      "geometry": {
        "type": "Point",
        "coordinates": [
          -0.001016849999999181,
          -0.0003397500000019704
        ]
      },
      "id": "node/296494537",
      "clusterID": 17
    },
    {
      "type": "Feature",
      "properties": {
        "@id": "node/296494930",
        "addr:conscriptionnumber": "1673",
        "addr:housenumber": "1673/13",
        "addr:postcode": "12000",
        "addr:street": "Polská",
        "addr:streetnumber": "13",
        "source:addr": "uir_adr",
        "uir_adr:ADRESA_KOD": "21755779"
      },
      "geometry": {
        "type": "Point",
        "coordinates": [
          0.0010727500000005108,
          -0.0006815500000030283
        ]
      },
      "id": "node/296494930",
      "clusterID": 27
    },
    {
      "type": "Feature",
      "properties": {
        "@id": "node/296500413",
        "addr:conscriptionnumber": "1379",
        "addr:housenumber": "1379/20",
        "addr:postcode": "13000",
        "addr:street": "Slavíkova",
        "addr:streetnumber": "20",
        "source:addr": "uir_adr",
        "uir_adr:ADRESA_KOD": "21781460"
      },
      "geometry": {
        "type": "Point",
        "coordinates": [
          0.0012321500000016528,
          0.000621250000001794
        ]
      },
      "id": "node/296500413",
      "clusterID": 8
    },
    {
      "type": "Feature",
      "properties": {
        "@id": "node/296500752",
        "addr:conscriptionnumber": "1621",
        "addr:housenumber": "1621/11",
        "addr:postcode": "12000",
        "addr:street": "Polská",
        "addr:streetnumber": "11",
        "source:addr": "uir_adr",
        "uir_adr:ADRESA_KOD": "21755388"
      },
      "geometry": {
        "type": "Point",
        "coordinates": [
          0.0008689500000009787,
          -0.0007177499999997394
        ]
      },
      "id": "node/296500752",
      "clusterID": 27
    },
    {
      "type": "Feature",
      "properties": {
        "@id": "node/296500887",
        "addr:conscriptionnumber": "1474",
        "addr:housenumber": "1474/12",
        "addr:postcode": "12000",
        "addr:street": "Chopinova",
        "addr:streetnumber": "12",
        "source:addr": "uir_adr",
        "uir_adr:ADRESA_KOD": "21754021"
      },
      "geometry": {
        "type": "Point",
        "coordinates": [
          -0.0012095499999986714,
          0.0002330499999985136
        ]
      },
      "id": "node/296500887",
      "clusterID": 2
    },
    {
      "type": "Feature",
      "properties": {
        "@id": "node/296503273",
        "addr:conscriptionnumber": "1501",
        "addr:housenumber": "1501/16",
        "addr:postcode": "12000",
        "addr:street": "Chopinova",
        "addr:streetnumber": "16",
        "source:addr": "uir_adr",
        "uir_adr:ADRESA_KOD": "21754241"
      },
      "geometry": {
        "type": "Point",
        "coordinates": [
          -0.0013409499999994523,
          0.0005844499999980712
        ]
      },
      "id": "node/296503273",
      "clusterID": 0
    },
    {
      "type": "Feature",
      "properties": {
        "@id": "node/296519548",
        "addr:conscriptionnumber": "1607",
        "addr:housenumber": "1607/10",
        "addr:postcode": "12000",
        "addr:street": "Krkonošská",
        "addr:streetnumber": "10",
        "source:addr": "uir_adr",
        "uir_adr:ADRESA_KOD": "21755256"
      },
      "geometry": {
        "type": "Point",
        "coordinates": [
          0.00024415000000210796,
          0.00016184999999779848
        ]
      },
      "id": "node/296519548",
      "clusterID": 11
    },
    {
      "type": "Feature",
      "properties": {
        "@id": "node/296522110",
        "addr:conscriptionnumber": "1512",
        "addr:housenumber": "1512/11",
        "addr:postcode": "12000",
        "addr:street": "Krkonošská",
        "addr:streetnumber": "11",
        "source:addr": "uir_adr",
        "uir_adr:ADRESA_KOD": "21754357"
      },
      "geometry": {
        "type": "Point",
        "coordinates": [
          6.205000000214511e-05,
          0.00035444999999612037
        ]
      },
      "id": "node/296522110",
      "clusterID": 9
    },
    {
      "type": "Feature",
      "properties": {
        "@id": "node/296522227",
        "addr:conscriptionnumber": "1751",
        "addr:housenumber": "1751/58",
        "addr:postcode": "12000",
        "addr:street": "Polská",
        "addr:streetnumber": "58",
        "source:addr": "uir_adr",
        "uir_adr:ADRESA_KOD": "21756155"
      },
      "geometry": {
        "type": "Point",
        "coordinates": [
          0.001241050000000854,
          -0.0008754500000023313
        ]
      },
      "id": "node/296522227",
      "clusterID": 27
    },
    {
      "type": "Feature",
      "properties": {
        "@id": "node/296523215",
        "addr:conscriptionnumber": "1588",
        "addr:housenumber": "1588/12",
        "addr:postcode": "12000",
        "addr:street": "Na Švihance",
        "addr:streetnumber": "12",
        "source:addr": "uir_adr",
        "uir_adr:ADRESA_KOD": "21755108"
      },
      "geometry": {
        "type": "Point",
        "coordinates": [
          -0.0002042499999994618,
          0.0008754499999952259
        ]
      },
      "id": "node/296523215",
      "clusterID": 1
    },
    {
      "type": "Feature",
      "properties": {
        "@id": "node/296542320",
        "addr:conscriptionnumber": "2129",
        "addr:housenumber": "2129/3",
        "addr:postcode": "12000",
        "addr:street": "Čerchovská",
        "addr:streetnumber": "3",
        "source:addr": "uir_adr",
        "uir_adr:ADRESA_KOD": "21756830"
      },
      "geometry": {
        "type": "Point",
        "coordinates": [
          5.195000000135508e-05,
          -0.0005902500000019018
        ]
      },
      "id": "node/296542320",
      "clusterID": 23
    },
    {
      "type": "Feature",
      "properties": {
        "@id": "node/296543242",
        "addr:conscriptionnumber": "1607",
        "addr:housenumber": "1607/10",
        "addr:postcode": "12000",
        "addr:street": "Čerchovská",
        "addr:streetnumber": "10",
        "source:addr": "uir_adr",
        "uir_adr:ADRESA_KOD": "21755248"
      },
      "geometry": {
        "type": "Point",
        "coordinates": [
          0.000152450000001636,
          6.29500000002281e-05
        ]
      },
      "id": "node/296543242",
      "clusterID": 11
    },
    {
      "type": "Feature",
      "properties": {
        "@id": "node/296550109",
        "addr:conscriptionnumber": "1623",
        "addr:housenumber": "1623/12",
        "addr:postcode": "12000",
        "addr:street": "Krkonošská",
        "addr:streetnumber": "12",
        "source:addr": "uir_adr",
        "uir_adr:ADRESA_KOD": "21755400"
      },
      "geometry": {
        "type": "Point",
        "coordinates": [
          0.00047565000000204805,
          0.00020045000000123991
        ]
      },
      "id": "node/296550109",
      "clusterID": 12
    },
    {
      "type": "Feature",
      "properties": {
        "@id": "node/296551077",
        "addr:conscriptionnumber": "1511",
        "addr:housenumber": "1511/5",
        "addr:postcode": "12000",
        "addr:street": "Krkonošská",
        "addr:streetnumber": "5",
        "source:addr": "uir_adr",
        "uir_adr:ADRESA_KOD": "21754349"
      },
      "geometry": {
        "type": "Point",
        "coordinates": [
          -0.0006187499999992241,
          0.00023995000000098798
        ]
      },
      "id": "node/296551077",
      "clusterID": 3
    },
    {
      "type": "Feature",
      "properties": {
        "@id": "node/296552624",
        "addr:conscriptionnumber": "1494",
        "addr:housenumber": "1494/3",
        "addr:postcode": "12000",
        "addr:street": "Krkonošská",
        "addr:streetnumber": "3",
        "source:addr": "uir_adr",
        "uir_adr:ADRESA_KOD": "21754195"
      },
      "geometry": {
        "type": "Point",
        "coordinates": [
          -0.0008798499999986831,
          0.0002077500000012833
        ]
      },
      "id": "node/296552624",
      "clusterID": 2
    },
    {
      "type": "Feature",
      "properties": {
        "@id": "node/296561524",
        "addr:conscriptionnumber": "1520",
        "addr:housenumber": "1520/7",
        "addr:postcode": "12000",
        "addr:street": "Krkonošská",
        "addr:streetnumber": "7",
        "source:addr": "uir_adr",
        "uir_adr:ADRESA_KOD": "21754438"
      },
      "geometry": {
        "type": "Point",
        "coordinates": [
          -0.0003733499999984957,
          0.00027974999999713646
        ]
      },
      "id": "node/296561524",
      "clusterID": 3
    },
    {
      "type": "Feature",
      "properties": {
        "@id": "node/296563542",
        "addr:conscriptionnumber": "1618",
        "addr:housenumber": "1618/2",
        "addr:postcode": "12000",
        "addr:street": "Čerchovská",
        "addr:streetnumber": "2",
        "source:addr": "uir_adr",
        "uir_adr:ADRESA_KOD": "21755353"
      },
      "geometry": {
        "type": "Point",
        "coordinates": [
          0.00044225000000075454,
          -0.000700950000002365
        ]
      },
      "id": "node/296563542",
      "clusterID": 26
    },
    {
      "type": "Feature",
      "properties": {
        "@id": "node/296568573",
        "addr:conscriptionnumber": "1560",
        "addr:housenumber": "1560/1",
        "addr:postcode": "12000",
        "addr:street": "Čerchovská",
        "addr:streetnumber": "1",
        "source:addr": "uir_adr",
        "uir_adr:ADRESA_KOD": "21754896"
      },
      "geometry": {
        "type": "Point",
        "coordinates": [
          0.00011195000000085997,
          -0.0007392500000023006
        ]
      },
      "id": "node/296568573",
      "clusterID": 25
    },
    {
      "type": "Feature",
      "properties": {
        "@id": "node/296571509",
        "addr:conscriptionnumber": "1471",
        "addr:housenumber": "1471/17",
        "addr:postcode": "12000",
        "addr:street": "Krkonošská",
        "addr:streetnumber": "17",
        "source:addr": "uir_adr",
        "uir_adr:ADRESA_KOD": "21753989"
      },
      "geometry": {
        "type": "Point",
        "coordinates": [
          0.0007427500000005693,
          0.0004690499999995268
        ]
      },
      "id": "node/296571509",
      "clusterID": 8
    },
    {
      "type": "Feature",
      "properties": {
        "@id": "node/296573760",
        "addr:conscriptionnumber": "1608",
        "addr:housenumber": "1608/18",
        "addr:postcode": "12000",
        "addr:street": "Krkonošská",
        "addr:streetnumber": "18",
        "source:addr": "uir_adr",
        "uir_adr:ADRESA_KOD": "21755264"
      },
      "geometry": {
        "type": "Point",
        "coordinates": [
          0.001089050000000924,
          0.00030004999999988513
        ]
      },
      "id": "node/296573760",
      "clusterID": 14
    },
    {
      "type": "Feature",
      "properties": {
        "@id": "node/296576136",
        "addr:conscriptionnumber": "2001",
        "addr:housenumber": "2001/16",
        "addr:postcode": "12000",
        "addr:street": "Krkonošská",
        "addr:streetnumber": "16",
        "source:addr": "uir_adr",
        "uir_adr:ADRESA_KOD": "21756627"
      },
      "geometry": {
        "type": "Point",
        "coordinates": [
          0.0008575500000009839,
          0.0002614499999964437
        ]
      },
      "id": "node/296576136",
      "clusterID": 13
    },
    {
      "type": "Feature",
      "properties": {
        "@id": "node/296580704",
        "addr:conscriptionnumber": "1664",
        "addr:housenumber": "1664/15",
        "addr:postcode": "12000",
        "addr:street": "Polská",
        "addr:streetnumber": "15",
        "source:addr": "uir_adr",
        "uir_adr:ADRESA_KOD": "21755710"
      },
      "geometry": {
        "type": "Point",
        "coordinates": [
          0.0012646500000013106,
          -0.0006555500000047232
        ]
      },
      "id": "node/296580704",
      "clusterID": 27
    },
    {
      "type": "Feature",
      "properties": {
        "@id": "node/296585650",
        "addr:conscriptionnumber": "1548",
        "addr:housenumber": "1548/6",
        "addr:postcode": "12000",
        "addr:street": "Na Švihance",
        "addr:streetnumber": "6",
        "source:addr": "uir_adr",
        "uir_adr:ADRESA_KOD": "21754748"
      },
      "geometry": {
        "type": "Point",
        "coordinates": [
          -0.000831549999999126,
          0.0007747499999979368
        ]
      },
      "id": "node/296585650",
      "clusterID": 0
    },
    {
      "type": "Feature",
      "properties": {
        "@id": "node/296585969",
        "addr:conscriptionnumber": "1533",
        "addr:housenumber": "1533/2",
        "addr:postcode": "12000",
        "addr:street": "Chopinova",
        "addr:streetnumber": "2",
        "source:addr": "uir_adr",
        "uir_adr:ADRESA_KOD": "21754594"
      },
      "geometry": {
        "type": "Point",
        "coordinates": [
          -0.0008292499999988934,
          -0.0008223499999999717
        ]
      },
      "id": "node/296585969",
      "clusterID": 19
    },
    {
      "type": "Feature",
      "properties": {
        "@id": "node/296586796",
        "addr:conscriptionnumber": "1556",
        "addr:housenumber": "1556/6",
        "addr:postcode": "12000",
        "addr:street": "Chopinova",
        "addr:streetnumber": "6",
        "source:addr": "uir_adr",
        "uir_adr:ADRESA_KOD": "21754837"
      },
      "geometry": {
        "type": "Point",
        "coordinates": [
          -0.000958749999998787,
          -0.0004798500000049444
        ]
      },
      "id": "node/296586796",
      "clusterID": 19
    },
    {
      "type": "Feature",
      "properties": {
        "@id": "node/296588102",
        "addr:conscriptionnumber": "1477",
        "addr:housenumber": "1477/15",
        "addr:postcode": "12000",
        "addr:street": "Krkonošská",
        "addr:streetnumber": "15",
        "source:addr": "uir_adr",
        "uir_adr:ADRESA_KOD": "21754071"
      },
      "geometry": {
        "type": "Point",
        "coordinates": [
          0.0004696500000012094,
          0.00042684999999664797
        ]
      },
      "id": "node/296588102",
      "clusterID": 10
    },
    {
      "type": "Feature",
      "properties": {
        "@id": "node/296598231",
        "addr:conscriptionnumber": "1608",
        "addr:housenumber": "1608/15",
        "addr:postcode": "12000",
        "addr:street": "Slavíkova",
        "addr:streetnumber": "15",
        "source:addr": "uir_adr",
        "uir_adr:ADRESA_KOD": "21755272"
      },
      "geometry": {
        "type": "Point",
        "coordinates": [
          0.0012546500000016891,
          0.00025104999999570055
        ]
      },
      "id": "node/296598231",
      "clusterID": 14
    },
    {
      "type": "Feature",
      "properties": {
        "@id": "node/296606368",
        "addr:conscriptionnumber": "1667",
        "addr:housenumber": "1667/14",
        "addr:postcode": "12000",
        "addr:street": "Krkonošská",
        "addr:streetnumber": "14",
        "source:addr": "uir_adr",
        "uir_adr:ADRESA_KOD": "21755728"
      },
      "geometry": {
        "type": "Point",
        "coordinates": [
          0.0006656500000019605,
          0.00023534999999696993
        ]
      },
      "id": "node/296606368",
      "clusterID": 10
    },
    {
      "type": "Feature",
      "properties": {
        "@id": "node/296616284",
        "addr:conscriptionnumber": "1744",
        "addr:housenumber": "1744/5",
        "addr:postcode": "12000",
        "addr:street": "Čerchovská",
        "addr:streetnumber": "5",
        "source:addr": "uir_adr",
        "uir_adr:ADRESA_KOD": "21756104"
      },
      "geometry": {
        "type": "Point",
        "coordinates": [
          -6.049999997870259e-06,
          -0.0004501499999989278
        ]
      },
      "id": "node/296616284",
      "clusterID": 20
    },
    {
      "type": "Feature",
      "properties": {
        "@id": "node/296650149",
        "addr:conscriptionnumber": "1529",
        "addr:housenumber": "1529/2",
        "addr:postcode": "12000",
        "addr:street": "Krkonošská",
        "addr:streetnumber": "2",
        "source:addr": "uir_adr",
        "uir_adr:ADRESA_KOD": "21754543"
      },
      "geometry": {
        "type": "Point",
        "coordinates": [
          -0.0010915499999981648,
          -5.595000000369055e-05
        ]
      },
      "id": "node/296650149",
      "clusterID": 17
    },
    {
      "type": "Feature",
      "properties": {
        "@id": "node/296657135",
        "addr:conscriptionnumber": "1715",
        "addr:housenumber": "1715/8",
        "addr:postcode": "12000",
        "addr:street": "Čerchovská",
        "addr:streetnumber": "8",
        "source:addr": "uir_adr",
        "uir_adr:ADRESA_KOD": "21756031"
      },
      "geometry": {
        "type": "Point",
        "coordinates": [
          0.00021995000000174514,
          -0.000121650000004081
        ]
      },
      "id": "node/296657135",
      "clusterID": 21
    },
    {
      "type": "Feature",
      "properties": {
        "@id": "node/296660427",
        "addr:conscriptionnumber": "1745",
        "addr:housenumber": "1745/7",
        "addr:postcode": "12000",
        "addr:street": "Čerchovská",
        "addr:streetnumber": "7",
        "source:addr": "uir_adr",
        "uir_adr:ADRESA_KOD": "21756112"
      },
      "geometry": {
        "type": "Point",
        "coordinates": [
          -5.4149999998642784e-05,
          -0.00029105000000129166
        ]
      },
      "id": "node/296660427",
      "clusterID": 18
    },
    {
      "type": "Feature",
      "properties": {
        "@id": "node/296667313",
        "addr:conscriptionnumber": "2037",
        "addr:housenumber": "2037/9",
        "addr:postcode": "12000",
        "addr:street": "Čerchovská",
        "addr:streetnumber": "9",
        "source:addr": "uir_adr",
        "uir_adr:ADRESA_KOD": "21756724"
      },
      "geometry": {
        "type": "Point",
        "coordinates": [
          -0.00010844999999903848,
          -0.00016875000000027285
        ]
      },
      "id": "node/296667313",
      "clusterID": 18
    },
    {
      "type": "Feature",
      "properties": {
        "@id": "node/296670851",
        "addr:conscriptionnumber": "1618",
        "addr:housenumber": "1618/9",
        "addr:postcode": "12000",
        "addr:street": "Polská",
        "addr:streetnumber": "9",
        "source:addr": "uir_adr",
        "uir_adr:ADRESA_KOD": "21755361"
      },
      "geometry": {
        "type": "Point",
        "coordinates": [
          0.000582050000001999,
          -0.0007612500000035993
        ]
      },
      "id": "node/296670851",
      "clusterID": 26
    },
    {
      "type": "Feature",
      "properties": {
        "@id": "node/296674806",
        "addr:conscriptionnumber": "1471",
        "addr:housenumber": "1471/17",
        "addr:postcode": "12000",
        "addr:street": "Slavíkova",
        "addr:streetnumber": "17",
        "source:addr": "uir_adr",
        "uir_adr:ADRESA_KOD": "21753997"
      },
      "geometry": {
        "type": "Point",
        "coordinates": [
          0.0007891500000010154,
          0.0005820499999984463
        ]
      },
      "id": "node/296674806",
      "clusterID": 8
    },
    {
      "type": "Feature",
      "properties": {
        "@id": "node/296676844",
        "addr:conscriptionnumber": "1499",
        "addr:housenumber": "1499/22",
        "addr:postcode": "13000",
        "addr:street": "Slavíkova",
        "addr:streetnumber": "22",
        "source:addr": "uir_adr",
        "uir_adr:ADRESA_KOD": "21782849"
      },
      "geometry": {
        "type": "Point",
        "coordinates": [
          0.0008863500000018121,
          0.0008538499999986016
        ]
      },
      "id": "node/296676844",
      "clusterID": 8
    },
    {
      "type": "Feature",
      "properties": {
        "@id": "node/296677170",
        "addr:conscriptionnumber": "1472",
        "addr:housenumber": "1472/14",
        "addr:postcode": "12000",
        "addr:street": "Chopinova",
        "addr:streetnumber": "14",
        "source:addr": "uir_adr",
        "uir_adr:ADRESA_KOD": "21754004"
      },
      "geometry": {
        "type": "Point",
        "coordinates": [
          -0.0012891499999980738,
          0.00040754999999847996
        ]
      },
      "id": "node/296677170",
      "clusterID": 2
    },
    {
      "type": "Feature",
      "properties": {
        "@id": "node/296678217",
        "addr:conscriptionnumber": "1560",
        "addr:housenumber": "1560/7",
        "addr:postcode": "12000",
        "addr:street": "Polská",
        "addr:streetnumber": "7",
        "source:addr": "uir_adr",
        "uir_adr:ADRESA_KOD": "21754900"
      },
      "geometry": {
        "type": "Point",
        "coordinates": [
          2.405000000216262e-05,
          -0.0008559500000018261
        ]
      },
      "id": "node/296678217",
      "clusterID": 25
    },
    {
      "type": "Feature",
      "properties": {
        "@id": "node/296685135",
        "addr:conscriptionnumber": "1543",
        "addr:housenumber": "1543/4",
        "addr:postcode": "12000",
        "addr:street": "Chopinova",
        "addr:streetnumber": "4",
        "source:addr": "uir_adr",
        "uir_adr:ADRESA_KOD": "21754683"
      },
      "geometry": {
        "type": "Point",
        "coordinates": [
          -0.0008949499999992838,
          -0.0006466500000001929
        ]
      },
      "id": "node/296685135",
      "clusterID": 19
    },
    {
      "type": "Feature",
      "properties": {
        "@id": "node/296686946",
        "addr:conscriptionnumber": "1529",
        "addr:housenumber": "1529/10",
        "addr:postcode": "12000",
        "addr:street": "Chopinova",
        "addr:streetnumber": "10",
        "source:addr": "uir_adr",
        "uir_adr:ADRESA_KOD": "21754535"
      },
      "geometry": {
        "type": "Point",
        "coordinates": [
          -0.0010863499999977932,
          -0.00014625000000023647
        ]
      },
      "id": "node/296686946",
      "clusterID": 17
    },
    {
      "type": "Feature",
      "properties": {
        "@id": "node/296692238",
        "addr:conscriptionnumber": "1981",
        "addr:housenumber": "1981/6",
        "addr:postcode": "12000",
        "addr:street": "Čerchovská",
        "addr:streetnumber": "6",
        "source:addr": "uir_adr",
        "uir_adr:ADRESA_KOD": "21756490"
      },
      "geometry": {
        "type": "Point",
        "coordinates": [
          0.00034295000000206244,
          -0.0003013500000008662
        ]
      },
      "id": "node/296692238",
      "clusterID": 21
    },
    {
      "type": "Feature",
      "properties": {
        "@id": "node/296702419",
        "addr:conscriptionnumber": "1549",
        "addr:housenumber": "1549/8",
        "addr:postcode": "12000",
        "addr:street": "Na Švihance",
        "addr:streetnumber": "8",
        "source:addr": "uir_adr",
        "uir_adr:ADRESA_KOD": "21754756"
      },
      "geometry": {
        "type": "Point",
        "coordinates": [
          -0.000600049999999186,
          0.0008133500000013782
        ]
      },
      "id": "node/296702419",
      "clusterID": 1
    },
    {
      "type": "Feature",
      "properties": {
        "@id": "node/296703658",
        "addr:conscriptionnumber": "1557",
        "addr:housenumber": "1557/11",
        "addr:postcode": "12000",
        "addr:street": "Čerchovská",
        "addr:streetnumber": "11",
        "source:addr": "uir_adr",
        "uir_adr:ADRESA_KOD": "21754845"
      },
      "geometry": {
        "type": "Point",
        "coordinates": [
          -0.00017414999999942893,
          6.9499999995059625e-06
        ]
      },
      "id": "node/296703658",
      "clusterID": 6
    },
    {
      "type": "Feature",
      "properties": {
        "@id": "node/296837953",
        "addr:conscriptionnumber": "1501",
        "addr:housenumber": "1501/2",
        "addr:place": "Vinohrady",
        "addr:postcode": "12000",
        "addr:street": "Na Švihance",
        "addr:streetnumber": "2",
        "ref:ruian:addr": "25739808"
      },
      "geometry": {
        "type": "Point",
        "coordinates": [
          -0.0013895499999989624,
          0.00068004999999971
        ]
      },
      "id": "node/296837953",
      "clusterID": 0
    },
    {
      "type": "Feature",
      "properties": {
        "@id": "node/2408146789",
        "addr:city": "Praha 2",
        "addr:housenumber": "10",
        "addr:postcode": "12000",
        "addr:street": "Krkonošská",
        "amenity": "restaurant",
        "cuisine": "italian",
        "email": "lacasadierminio@seznam.cz",
        "name": "La Casa di Erminio",
        "opening_hours": "Mo-Sa 12:00-23:00",
        "phone": "+420 704 087 191",
        "website": "http://lacasadierminio.cz/"
      },
      "geometry": {
        "type": "Point",
        "coordinates": [
          0.00016745000000106813,
          3.6250000000848104e-05
        ]
      },
      "id": "node/2408146789",
      "clusterID": 11
    },
    {
      "type": "Feature",
      "properties": {
        "@id": "node/2409856200",
        "addr:city": "Praha",
        "addr:conscriptionnumber": "1711",
        "addr:country": "CZ",
        "addr:housenumber": "1711/4",
        "addr:place": "Vinohrady",
        "addr:postcode": "12000",
        "addr:street": "Čerchovská",
        "addr:streetnumber": "4",
        "addr:suburb": "Praha 2",
        "name": "Žabka",
        "opening_hours": "Mo-Su 06:00-23:00",
        "ref:ruian:addr": "21755990",
        "shop": "convenience",
        "source:addr": "cuzk:ruian",
        "source:loc": "survey",
        "website": "http://www.izabka.cz"
      },
      "geometry": {
        "type": "Point",
        "coordinates": [
          0.0003952500000021786,
          -0.0005848500000027457
        ]
      },
      "id": "node/2409856200",
      "clusterID": 24
    },
    {
      "type": "Feature",
      "properties": {
        "@id": "node/3152681841",
        "addr:city": "Praha",
        "addr:housenumber": "21",
        "addr:postcode": "12000",
        "addr:street": "Slavíkova",
        "amenity": "cafe",
        "name": "Prádelna Café"
      },
      "geometry": {
        "type": "Point",
        "coordinates": [
          0.00043625000000169223,
          0.00079334999999503
        ]
      },
      "id": "node/3152681841",
      "clusterID": 7
    },
    {
      "type": "Feature",
      "properties": {
        "@id": "node/6702957657",
        "addr:city": "Praha 2",
        "addr:housenumber": "8",
        "addr:postcode": "12000",
        "addr:street": "Krkonošská",
        "amenity": "veterinary",
        "name": "Veterinární klinika Panda",
        "opening_hours": "Mo-Fr 08:30-21:00; Sa 09:00-13:00; Su 16:00-19:00",
        "operator": "Panda Production, s.r.o.",
        "phone": "+420 222 725 345;+420 602 568 545",
        "website": "http://veterinarniklinikapanda.cz/"
      },
      "geometry": {
        "type": "Point",
        "coordinates": [
          -0.00041624999999889667,
          5.034999999509182e-05
        ]
      },
      "id": "node/6702957657",
      "clusterID": 5
    },
    {
      "type": "Feature",
      "properties": {
        "@id": "node/7012029530",
        "addr:housenumber": "15",
        "addr:street": "Slavíkova",
        "amenity": "restaurant",
        "name": "Dóttir"
      },
      "geometry": {
        "type": "Point",
        "coordinates": [
          0.0012546500000016891,
          0.00025104999999570055
        ]
      },
      "id": "node/7012029530",
      "clusterID": 14
    }
  ]
}